[{"OBJECT_NAME":"STARLINK-11498 [DTC]","OBJECT_ID":"2024-237K","EPOCH":"2025-12-26T12:16:57.633888","MEAN_MOTION":15.70861158,"ECCENTRICITY":0.00017392,"INCLINATION":42.9993,"RA_OF_ASC_NODE":137.6705,"ARG_OF_PERICENTER":275.1153,"MEAN_ANOMALY":84.9516,"EPHEMERIS_TYPE":0,"CLASSIFICATION_TYPE":"U","NORAD_CAT_ID":62276,"ELEMENT_SET_NO":999,"REV_AT_EPOCH":6154,"BSTAR":0.0017713138,"MEAN_MOTION_DOT":0.00233545,"MEAN_MOTION_DDOT":0},{"OBJECT_NAME":"STARLINK-11484 [DTC]","OBJECT_ID":"2024-237L","EPOCH":"2025-12-26T16:00:01.999584","MEAN_MOTION":15.7081888,"ECCENTRICITY":0.00016384,"INCLINATION":42.9996,"RA_OF_ASC_NODE":136.8876,"ARG_OF_PERICENTER":277.1103,"MEAN_ANOMALY":179.9294,"EPHEMERIS_TYPE":0,"CLASSIFICATION_TYPE":"U","NORAD_CAT_ID":62277,"ELEMENT_SET_NO":999,"REV_AT_EPOCH":594,"BSTAR":-4.5492527e-5,"MEAN_MOTION_DOT":-6.276e-5,"MEAN_MOTION_DDOT":0},{"OBJECT_NAME":"STARLINK-11487 [DTC]","OBJECT_ID":"2024-237M","EPOCH":"2025-12-26T10:07:21.655488","MEAN_MOTION":15.70863079,"ECCENTRICITY":0.0001957,"INCLINATION":42.9999,"RA_OF_ASC_NODE":138.7337,"ARG_OF_PERICENTER":255.6485,"MEAN_ANOMALY":104.4165,"EPHEMERIS_TYPE":0,"CLASSIFICATION_TYPE":"U","NORAD_CAT_ID":62278,"ELEMENT_SET_NO":999,"REV_AT_EPOCH":6152,"BSTAR":0.0006260444,"MEAN_MOTION_DOT":0.00080746,"MEAN_MOTION_DDOT":0},{"OBJECT_NAME":"STARLINK-11499 [DTC]","OBJECT_ID":"2024-237N","EPOCH":"2025-12-26T10:23:58.026336","MEAN_MOTION":15.70927126,"ECCENTRICITY":0.00012758,"INCLINATION":42.9995,"RA_OF_ASC_NODE":138.8268,"ARG_OF_PERICENTER":269.8989,"MEAN_ANOMALY":90.1733,"EPHEMERIS_TYPE":0,"CLASSIFICATION_TYPE":"U","NORAD_CAT_ID":62279,"ELEMENT_SET_NO":999,"REV_AT_EPOCH":6145,"BSTAR":0.0013974247,"MEAN_MOTION_DOT":0.00183544,"MEAN_MOTION_DDOT":0},{"OBJECT_NAME":"STARLINK-33548","OBJECT_ID":"2024-237P","EPOCH":"2025-12-26T02:31:18.411744","MEAN_MOTION":15.27584992,"ECCENTRICITY":3.849e-5,"INCLINATION":42.9968,"RA_OF_ASC_NODE":261.07,"ARG_OF_PERICENTER":242.8363,"MEAN_ANOMALY":117.245,"EPHEMERIS_TYPE":0,"CLASSIFICATION_TYPE":"U","NORAD_CAT_ID":62280,"ELEMENT_SET_NO":999,"REV_AT_EPOCH":6006,"BSTAR":0.00075665493,"MEAN_MOTION_DOT":0.00020621,"MEAN_MOTION_DDOT":0},{"OBJECT_NAME":"STARLINK-33544","OBJECT_ID":"2024-237Q","EPOCH":"2025-12-26T11:39:33.646176","MEAN_MOTION":15.27591324,"ECCENTRICITY":0.00015124,"INCLINATION":43.0023,"RA_OF_ASC_NODE":270.0146,"ARG_OF_PERICENTER":266.8052,"MEAN_ANOMALY":93.2627,"EPHEMERIS_TYPE":0,"CLASSIFICATION_TYPE":"U","NORAD_CAT_ID":62281,"ELEMENT_SET_NO":999,"REV_AT_EPOCH":5999,"BSTAR":0.00078059491,"MEAN_MOTION_DOT":0.00021288,"MEAN_MOTION_DDOT":0},{"OBJECT_NAME":"STARLINK-33560","OBJECT_ID":"2024-237R","EPOCH":"2025-12-26T11:13:39.877824","MEAN_MOTION":15.27553563,"ECCENTRICITY":0.00013238,"INCLINATION":42.9919,"RA_OF_ASC_NODE":269.878,"ARG_OF_PERICENTER":76.6295,"MEAN_ANOMALY":283.4704,"EPHEMERIS_TYPE":0,"CLASSIFICATION_TYPE":"U","NORAD_CAT_ID":62282,"ELEMENT_SET_NO":999,"REV_AT_EPOCH":5990,"BSTAR":0.00066601609,"MEAN_MOTION_DOT":0.00018096,"MEAN_MOTION_DDOT":0},{"OBJECT_NAME":"STARLINK-33547","OBJECT_ID":"2024-237S","EPOCH":"2025-12-26T10:16:32.067552","MEAN_MOTION":15.27568994,"ECCENTRICITY":0.00012065,"INCLINATION":43,"RA_OF_ASC_NODE":259.1912,"ARG_OF_PERICENTER":275.6624,"MEAN_ANOMALY":84.409,"EPHEMERIS_TYPE":0,"CLASSIFICATION_TYPE":"U","NORAD_CAT_ID":62283,"ELEMENT_SET_NO":999,"REV_AT_EPOCH":6011,"BSTAR":0.00079385974,"MEAN_MOTION_DOT":0.0002164,"MEAN_MOTION_DDOT":0},{"OBJECT_NAME":"STARLINK-33563","OBJECT_ID":"2024-237T","EPOCH":"2025-12-26T11:22:54.663456","MEAN_MOTION":15.27570814,"ECCENTRICITY":0.00015164,"INCLINATION":43.0004,"RA_OF_ASC_NODE":269.9223,"ARG_OF_PERICENTER":249.1708,"MEAN_ANOMALY":110.8981,"EPHEMERIS_TYPE":0,"CLASSIFICATION_TYPE":"U","NORAD_CAT_ID":62284,"ELEMENT_SET_NO":999,"REV_AT_EPOCH":5999,"BSTAR":0.00015473995,"MEAN_MOTION_DOT":3.997e-5,"MEAN_MOTION_DDOT":0},{"OBJECT_NAME":"STARLINK-33550","OBJECT_ID":"2024-237U","EPOCH":"2025-12-26T11:08:06.191520","MEAN_MOTION":15.27574518,"ECCENTRICITY":8.467e-5,"INCLINATION":42.9999,"RA_OF_ASC_NODE":269.846,"ARG_OF_PERICENTER":267.1241,"MEAN_ANOMALY":92.9514,"EPHEMERIS_TYPE":0,"CLASSIFICATION_TYPE":"U","NORAD_CAT_ID":62285,"ELEMENT_SET_NO":999,"REV_AT_EPOCH":5999,"BSTAR":0.00083019727,"MEAN_MOTION_DOT":0.00022649,"MEAN_MOTION_DDOT":0},{"OBJECT_NAME":"STARLINK-33564","OBJECT_ID":"2024-237V","EPOCH":"2025-12-26T11:28:27.550560","MEAN_MOTION":15.27576568,"ECCENTRICITY":0.00010251,"INCLINATION":42.9993,"RA_OF_ASC_NODE":269.9572,"ARG_OF_PERICENTER":301.4097,"MEAN_ANOMALY":58.6654,"EPHEMERIS_TYPE":0,"CLASSIFICATION_TYPE":"U","NORAD_CAT_ID":62286,"ELEMENT_SET_NO":999,"REV_AT_EPOCH":5999,"BSTAR":0.00065603484,"MEAN_MOTION_DOT":0.00017832,"MEAN_MOTION_DDOT":0},{"OBJECT_NAME":"STARLINK-33546","OBJECT_ID":"2024-237W","EPOCH":"2025-12-26T11:17:20.654880","MEAN_MOTION":15.27604932,"ECCENTRICITY":0.00026024,"INCLINATION":43.007,"RA_OF_ASC_NODE":269.8923,"ARG_OF_PERICENTER":269.6939,"MEAN_ANOMALY":90.3615,"EPHEMERIS_TYPE":0,"CLASSIFICATION_TYPE":"U","NORAD_CAT_ID":62287,"ELEMENT_SET_NO":999,"REV_AT_EPOCH":5990,"BSTAR":0.00091493249,"MEAN_MOTION_DOT":0.0002502,"MEAN_MOTION_DDOT":0},{"OBJECT_NAME":"STARLINK-33565","OBJECT_ID":"2024-237X","EPOCH":"2025-12-26T01:43:11.695296","MEAN_MOTION":15.27592392,"ECCENTRICITY":9.384e-5,"INCLINATION":42.998,"RA_OF_ASC_NODE":260.8175,"ARG_OF_PERICENTER":298.7979,"MEAN_ANOMALY":61.2778,"EPHEMERIS_TYPE":0,"CLASSIFICATION_TYPE":"U","NORAD_CAT_ID":62288,"ELEMENT_SET_NO":999,"REV_AT_EPOCH":6006,"BSTAR":0.00063033068,"MEAN_MOTION_DOT":0.0001713,"MEAN_MOTION_DDOT":0},{"OBJECT_NAME":"STARLINK-33549","OBJECT_ID":"2024-237Y","EPOCH":"2025-12-26T11:34:00.417792","MEAN_MOTION":15.27590133,"ECCENTRICITY":0.00015993,"INCLINATION":43.0009,"RA_OF_ASC_NODE":269.9829,"ARG_OF_PERICENTER":276.3423,"MEAN_ANOMALY":83.7246,"EPHEMERIS_TYPE":0,"CLASSIFICATION_TYPE":"U","NORAD_CAT_ID":62289,"ELEMENT_SET_NO":999,"REV_AT_EPOCH":5999,"BSTAR":0.00069434698,"MEAN_MOTION_DOT":0.000189,"MEAN_MOTION_DDOT":0},{"OBJECT_NAME":"STARLINK-32648","OBJECT_ID":"2024-239A","EPOCH":"2025-12-26T11:42:00.813024","MEAN_MOTION":15.30235329,"ECCENTRICITY":0.00011961,"INCLINATION":53.157,"RA_OF_ASC_NODE":161.3462,"ARG_OF_PERICENTER":99.3943,"MEAN_ANOMALY":260.7193,"EPHEMERIS_TYPE":0,"CLASSIFICATION_TYPE":"U","NORAD_CAT_ID":62301,"ELEMENT_SET_NO":999,"REV_AT_EPOCH":5835,"BSTAR":0.001630418,"MEAN_MOTION_DOT":0.00048296,"MEAN_MOTION_DDOT":0},{"OBJECT_NAME":"STARLINK-32594","OBJECT_ID":"2024-239B","EPOCH":"2025-12-26T05:09:03.612960","MEAN_MOTION":15.30238002,"ECCENTRICITY":0.00011221,"INCLINATION":53.1589,"RA_OF_ASC_NODE":172.9891,"ARG_OF_PERICENTER":73.8149,"MEAN_ANOMALY":286.2975,"EPHEMERIS_TYPE":0,"CLASSIFICATION_TYPE":"U","NORAD_CAT_ID":62302,"ELEMENT_SET_NO":999,"REV_AT_EPOCH":5816,"BSTAR":0.0010396603,"MEAN_MOTION_DOT":0.00030596,"MEAN_MOTION_DDOT":0},{"OBJECT_NAME":"STARLINK-32621","OBJECT_ID":"2024-239C","EPOCH":"2025-12-26T10:51:50.341536","MEAN_MOTION":15.30213083,"ECCENTRICITY":0.00016413,"INCLINATION":53.1608,"RA_OF_ASC_NODE":161.1302,"ARG_OF_PERICENTER":84.2079,"MEAN_ANOMALY":275.9109,"EPHEMERIS_TYPE":0,"CLASSIFICATION_TYPE":"U","NORAD_CAT_ID":62303,"ELEMENT_SET_NO":999,"REV_AT_EPOCH":5835,"BSTAR":0.00099040207,"MEAN_MOTION_DOT":0.00029101,"MEAN_MOTION_DDOT":0},{"OBJECT_NAME":"STARLINK-32597","OBJECT_ID":"2024-239D","EPOCH":"2025-12-26T14:36:26.529696","MEAN_MOTION":15.30213118,"ECCENTRICITY":8.217e-5,"INCLINATION":53.1574,"RA_OF_ASC_NODE":160.6818,"ARG_OF_PERICENTER":108.3172,"MEAN_ANOMALY":251.7919,"EPHEMERIS_TYPE":0,"CLASSIFICATION_TYPE":"U","NORAD_CAT_ID":62304,"ELEMENT_SET_NO":999,"REV_AT_EPOCH":5837,"BSTAR":0.00085151228,"MEAN_MOTION_DOT":0.00024955,"MEAN_MOTION_DDOT":0},{"OBJECT_NAME":"STARLINK-32649","OBJECT_ID":"2024-239E","EPOCH":"2025-12-26T12:00:53.319168","MEAN_MOTION":15.30202513,"ECCENTRICITY":0.00012309,"INCLINATION":53.1579,"RA_OF_ASC_NODE":173.5045,"ARG_OF_PERICENTER":50.527,"MEAN_ANOMALY":309.5839,"EPHEMERIS_TYPE":0,"CLASSIFICATION_TYPE":"U","NORAD_CAT_ID":62305,"ELEMENT_SET_NO":999,"REV_AT_EPOCH":5818,"BSTAR":0.0016082211,"MEAN_MOTION_DOT":0.00047581,"MEAN_MOTION_DDOT":0},{"OBJECT_NAME":"STARLINK-32633","OBJECT_ID":"2024-239F","EPOCH":"2025-12-26T12:43:24.184128","MEAN_MOTION":15.30207296,"ECCENTRICITY":0.00013262,"INCLINATION":53.1585,"RA_OF_ASC_NODE":173.6819,"ARG_OF_PERICENTER":86.0926,"MEAN_ANOMALY":274.0227,"EPHEMERIS_TYPE":0,"CLASSIFICATION_TYPE":"U","NORAD_CAT_ID":62306,"ELEMENT_SET_NO":999,"REV_AT_EPOCH":5818,"BSTAR":0.00079236733,"MEAN_MOTION_DOT":0.00023187,"MEAN_MOTION_DDOT":0},{"OBJECT_NAME":"STARLINK-32646","OBJECT_ID":"2024-239G","EPOCH":"2025-12-26T04:29:34.326240","MEAN_MOTION":15.30188264,"ECCENTRICITY":0.00011869,"INCLINATION":53.1602,"RA_OF_ASC_NODE":162.3185,"ARG_OF_PERICENTER":76.0506,"MEAN_ANOMALY":284.0627,"EPHEMERIS_TYPE":0,"CLASSIFICATION_TYPE":"U","NORAD_CAT_ID":62307,"ELEMENT_SET_NO":999,"REV_AT_EPOCH":5831,"BSTAR":0.00078761305,"MEAN_MOTION_DOT":0.00023032,"MEAN_MOTION_DDOT":0},{"OBJECT_NAME":"STARLINK-32706","OBJECT_ID":"2024-239H","EPOCH":"2025-12-25T21:45:24.039936","MEAN_MOTION":15.30183703,"ECCENTRICITY":0.0001128,"INCLINATION":53.1604,"RA_OF_ASC_NODE":176.9024,"ARG_OF_PERICENTER":82.3583,"MEAN_ANOMALY":277.7546,"EPHEMERIS_TYPE":0,"CLASSIFICATION_TYPE":"U","NORAD_CAT_ID":62308,"ELEMENT_SET_NO":999,"REV_AT_EPOCH":5808,"BSTAR":0.0011695,"MEAN_MOTION_DOT":0.00034422,"MEAN_MOTION_DDOT":0},{"OBJECT_NAME":"STARLINK-32678","OBJECT_ID":"2024-239J","EPOCH":"2025-12-26T14:44:00.559968","MEAN_MOTION":15.30197203,"ECCENTRICITY":0.00011327,"INCLINATION":53.157,"RA_OF_ASC_NODE":160.7127,"ARG_OF_PERICENTER":96.3796,"MEAN_ANOMALY":263.7334,"EPHEMERIS_TYPE":0,"CLASSIFICATION_TYPE":"U","NORAD_CAT_ID":62309,"ELEMENT_SET_NO":999,"REV_AT_EPOCH":5837,"BSTAR":0.0004166757,"MEAN_MOTION_DOT":0.00012001,"MEAN_MOTION_DDOT":0}]
